[Satellite]
VERSION=1.1
NAME=GSAT0212 (PRN E03)
NICKNAME=GSAT0212 (PRN E03)
TLE1=1 41860U 16069B   22340.46370328  .00000047  00000+0  00000+0 0  9994
TLE2=2 41860  54.8669 136.8094 0001303  28.9549 331.0284  1.70473238 37684
STATUS=0
